STARLINK-38005          
1 69677U 26145A   26194.01676548  .00263650  00000+0  17059-2 0  9997
2 69677  97.2835  40.7450 0000210  70.1808 289.9480 15.75304422  2834
STARLINK-38009          
1 69678U 26145B   26194.01500159  .00279011  00000+0  18015-2 0  9993
2 69678  97.2833  40.7477 0000071  78.9918 281.1356 15.75310782  2837
STARLINK-37998          
1 69679U 26145C   26194.01253023  .00157084  00000+0  10313-2 0  9997
2 69679  97.2845  40.7511 0000490  92.6141 267.5181 15.75268104  2830
STARLINK-37994          
1 69680U 26145D   26194.00002315 -.00048394  00000+0 -32542-3 0  9998
2 69680  97.2844  40.7340 0001347  97.2929 183.9536 15.75189911  4079
STARLINK-37992          
1 69681U 26145E   26193.66668981 -.00233928  00000+0 -16032-2 0  9991
2 69681  97.2847  40.3863 0001451  84.4071 109.8551 15.75296946  4027
STARLINK-37997          
1 69682U 26145F   26194.00002315 -.00065180  00000+0 -43924-3 0  9998
2 69682  97.2846  40.7368 0001296  96.2504 190.9907 15.75201626  4072
STARLINK-37990          
1 69683U 26145G   26194.01322577 -.00443671  00000+0 -31020-2 0  9993
2 69683  97.2842  40.7497 0001922  62.7428 297.4033 15.75397935  2835
STARLINK-37951          
1 69684U 26145H   26194.01217942  .00159908  00000+0  10508-2 0  9996
2 69684  97.2836  40.7495 0001094  73.1433 286.9952 15.75238869  2832
STARLINK-37957          
1 69685U 26145J   26194.01112101  .00281363  00000+0  18177-2 0  9999
2 69685  97.2852  40.7530 0001067  86.2104 273.9283 15.75291925  2836
STARLINK-37968          
1 69686U 26145K   26194.00512235  .00165259  00000+0  10842-2 0  9997
2 69686  97.2836  40.7603 0001107  78.1852 281.9538 15.75261341  2836
STARLINK-37977          
1 69687U 26145L   26194.00441721  .00190409  00000+0  12451-2 0  9992
2 69687  97.2847  40.7619 0001335  94.2134 265.9284 15.75266497  2838
STARLINK-37908          
1 69688U 26145M   26194.00229891  .00302593  00000+0  19481-2 0  9994
2 69688  97.2852  40.7657 0000741  67.1952 292.9391 15.75312981  2833
STARLINK-37979          
1 69689U 26145N   26194.00194489  .00188768  00000+0  12342-2 0  9994
2 69689  97.2846  40.7653 0000694  74.5939 285.5403 15.75273181  2837
STARLINK-37940          
1 69690U 26145P   26194.00088660  .00184613  00000+0  12080-2 0  9993
2 69690  97.2844  40.7675 0000800  86.8162 273.3195 15.75267832  2833
STARLINK-37961          
1 69691U 26145Q   26193.99771195  .00229733  00000+0  14936-2 0  9998
2 69691  97.2844  40.7716 0001050  66.5801 293.5575 15.75289524  2831
STARLINK-37787          
1 69692U 26145R   26194.05912406  .00180458  00000+0  11862-2 0  9994
2 69692  97.2835  40.8406 0002399  70.9961 289.1564 15.75172608  2846
STARLINK-37962          
1 69693U 26145S   26194.05735823  .00172415  00000+0  11340-2 0  9996
2 69693  97.2847  40.8440 0001923  78.4355 281.7126 15.75182603  2848
STARLINK-37953          
1 69694U 26145T   26193.99665381  .00252339  00000+0  16355-2 0  9995
2 69694  97.2837  40.7730 0001112  73.6264 286.5124 15.75297436  2836
STARLINK-37926          
1 69695U 26145U   26194.05947544  .00140253  00000+0  92659-3 0  9991
2 69695  97.2846  40.8408 0001973  80.8657 279.2832 15.75170001  2845
STARLINK-37959          
1 69696U 26145V   26194.05841587  .00175571  00000+0  11548-2 0  9990
2 69696  97.2848  40.8413 0001778  73.8020 286.3441 15.75173010  2841
STARLINK-37976          
1 69697U 26145W   26194.05558906  .00099142  00000+0  65650-3 0  9994
2 69697  97.2832  40.8465 0000439 349.2191  10.9064 15.75238569  2847
STARLINK-37912          
1 69698U 26145X   26194.05453440  .00156612  00000+0  10280-2 0  9996
2 69698  97.2840  40.8486 0001316  31.0813 329.0530 15.75274156  2846
STARLINK-37974          
1 69699U 26145Y   26194.05383144  .00274257  00000+0  17711-2 0  9992
2 69699  97.2835  40.8492 0001748  46.1339 314.0071 15.75320930  2843
STARLINK-37955          
1 69700U 26145Z   26194.24194349  .00058301  00000+0  38901-3 0  9998
2 69700  97.2843  41.0518 0001728  89.7185 270.4278 15.75193767  2870
STRIX-8                 
1 69701U 26146A   26193.96162445  .00002552  00000+0  19294-3 0  9991
2 69701  41.9901  25.4660 0007518   7.3301 352.7634 15.04423064  2446
ELECTRON R/B            
1 69702U 26146B   26193.94755505  .00437485  66600-4  11228-2 0  9993
2 69702  42.0747  16.4877 0175375   4.2406 355.9889 15.73290745  2559
ELECTRON KICK STAGE R/B 
1 69703U 26146C   26193.88968974  .00002431  00000+0  18195-3 0  9990
2 69703  41.9885  25.7883 0009345   8.0988 351.9988 15.04932996  2439
STARLINK-38055          
1 69704U 26147A   26194.08027928  .00266151  00000+0  13425-2 0  9991
2 69704  97.2842 230.3440 0000859 102.1932 257.9432 15.80909405  3529
STARLINK-37898          
1 69705U 26147B   26194.07945356  .00196668  00000+0  10008-2 0  9994
2 69705  97.2846 230.3453 0000962  91.8654 268.2725 15.80897557  3522
STARLINK-37970          
1 69706U 26147C   26194.07870160  .00154379  00000+0  78992-3 0  9995
2 69706  97.2833 230.3462 0001282 104.5065 255.6346 15.80888101  3527
